     2.100          NAVIGATION                              RINEX VERSION / TYPE
fic2rin                                 06/25/2011 00:07:39 PGM / RUN BY / DATE
                                                            END OF HEADER
26 11  6 24  6  0  0.0 -.699241645634D-04 -.115960574476D-10  .000000000000D+00
     .780000000000D+02 -.144062500000D+02  .386087510666D-08 -.157649454778D+01
    -.543892383575D-06  .204295872245D-01  .497698783875D-05  .515365708923D+04
     .453600000000D+06  .510364770889D-06  .800200847737D+00  .175088644028D-06
     .987163241186D+00  .294750000000D+03  .115414662094D+01 -.776425198369D-08
    -.278225874939D-09  .100000000000D+01  .164100000000D+04  .000000000000D+00
     .240000000000D+01  .000000000000D+00 -.605359673500D-08  .780000000000D+02
     .446406000000D+06  .400000000000D+01
27 11  6 24  6  0  0.0  .278064981103D-03  .375166564481D-11  .000000000000D+00
     .100000000000D+02 -.343750000000D+02  .388123309751D-08 -.601326936412D+00
    -.178068876266D-05  .215618512593D-01  .824593007565D-05  .515365978813D+04
     .453600000000D+06 -.385567545891D-06  .172563874314D+01  .782310962677D-07
     .980962737516D+00  .238375000000D+03 -.123806831950D+01 -.807962226298D-08
     .215008955986D-09  .100000000000D+01  .164100000000D+04  .000000000000D+00
     .340000000000D+01  .000000000000D+00 -.419095158577D-08  .266000000000D+03
     .446406000000D+06  .400000000000D+01
28 11  6 24  6  0  0.0  .469898805022D-04  .272848410532D-11  .000000000000D+00
     .177000000000D+03 -.135312500000D+02  .435339562212D-08  .501457809879D+00
    -.758096575737D-06  .170016234042D-01  .693276524544D-05  .515369766998D+04
     .453600000000D+06 -.253319740295D-06  .286005858380D+01  .000000000000D+00
     .975124199277D+00  .255843750000D+03 -.188620965117D+01 -.823570019283D-08
     .253224833545D-09  .100000000000D+01  .164100000000D+04  .000000000000D+00
     .340000000000D+01  .000000000000D+00 -.102445483208D-07  .177000000000D+03
     .446406000000D+06  .400000000000D+01
29 11  6 24  6  0  0.0  .217707362026D-03  .306954461848D-11  .000000000000D+00
     .490000000000D+02 -.345937500000D+02  .473341145130D-08  .264535764851D+01
    -.201351940632D-05  .255267287139D-02  .720284879208D-05  .515377358627D+04
     .453600000000D+06  .856816768646D-07 -.237991081339D+01 -.130385160446D-07
     .961802783861D+00  .241906250000D+03 -.118611220021D+01 -.806997900416D-08
    -.378587198248D-10  .100000000000D+01  .164100000000D+04  .000000000000D+00
     .240000000000D+01  .000000000000D+00 -.931322574615D-08  .490000000000D+02
     .446406000000D+06  .400000000000D+01
30 11  6 24  6  0  0.0  .152294524014D-04  .466116034659D-11  .000000000000D+00
     .640000000000D+02 -.603125000000D+01  .459626288137D-08 -.357552789372D+00
    -.294297933578D-06  .128449447220D-01  .674650073051D-05  .515368542480D+04
     .453600000000D+06 -.171363353729D-06  .277552073487D+01  .121071934700D-06
     .961203847644D+00  .253000000000D+03  .153310095238D+01 -.832463246864D-08
     .397516558160D-09  .100000000000D+01  .164100000000D+04  .000000000000D+00
     .136500000000D+02  .630000000000D+02 -.838190317154D-08  .640000000000D+02
     .446406000000D+06  .400000000000D+01
31 11  6 24  6  0  0.0  .100366771221D-03  .591171556152D-11  .000000000000D+00
     .101000000000D+03 -.204062500000D+02  .386694678814D-08 -.297947452390D+01
    -.104121863842D-05  .760073144920D-02  .822357833385D-05  .515368430328D+04
     .453600000000D+06  .689178705215D-07  .178128192362D+01  .260770320892D-07
     .979651038352D+00  .232156250000D+03 -.951575944889D+00 -.764210403859D-08
     .275011455331D-10  .100000000000D+01  .164100000000D+04  .000000000000D+00
     .340000000000D+01  .000000000000D+00 -.130385160446D-07  .101000000000D+03
     .446406000000D+06  .400000000000D+01
32 11  6 24  6  0  0.0 -.279042404145D-03 -.716227077646D-11  .000000000000D+00
     .830000000000D+02  .650937500000D+02  .469090968093D-08 -.227913749961D+01
     .339187681675D-05  .121556216618D-01  .556372106075D-05  .515364986992D+04
     .453600000000D+06 -.143423676491D-06 -.236900943898D+00  .201165676117D-06
     .954918493262D+00  .268968750000D+03 -.775161035723D+00 -.813105297671D-08
    -.646455498895D-10  .100000000000D+01  .164100000000D+04  .000000000000D+00
     .240000000000D+01  .000000000000D+00 -.279396772385D-08  .830000000000D+02
     .446406000000D+06  .400000000000D+01
31 11  6 24  5 59 44.0  .100376084447D-03  .602540239925D-11  .000000000000D+00
     .100000000000D+02 -.204062500000D+02  .386694678814D-08 -.298180798064D+01
    -.104121863842D-05  .760073575657D-02  .822357833385D-05  .515368430138D+04
     .453584000000D+06  .689178705215D-07  .178128203919D+01  .260770320892D-07
     .979651039815D+00  .232156250000D+03 -.951576214066D+00 -.764210403859D-08
     .275011455331D-10  .100000000000D+01  .164100000000D+04  .000000000000D+00
     .240000000000D+01  .000000000000D+00 -.130385160446D-07  .100000000000D+02
     .446466000000D+06  .400000000000D+01
28 11  6 24  5 59 44.0  .469950027764D-04  .272848410532D-11  .000000000000D+00
     .200000000000D+02 -.135312500000D+02  .435339562212D-08  .499123959613D+00
    -.758096575737D-06  .170016193297D-01  .693276524544D-05  .515369766617D+04
     .453584000000D+06 -.253319740295D-06  .286005870669D+01  .000000000000D+00
     .975124196351D+00  .255843750000D+03 -.188620949318D+01 -.823570019283D-08
     .253224833545D-09  .100000000000D+01  .164100000000D+04  .000000000000D+00
     .240000000000D+01  .000000000000D+00 -.102445483208D-07  .200000000000D+02
     .447906000000D+06  .400000000000D+01
29 11  6 24  5 59 44.0  .217706430703D-03  .306954461848D-11  .000000000000D+00
     .100000000000D+01 -.345937500000D+02  .473341145130D-08  .264302515583D+01
    -.201351940632D-05  .255267100874D-02  .720284879208D-05  .515377357674D+04
     .453584000000D+06  .856816768646D-07 -.237991068758D+01 -.130385160446D-07
     .961802778009D+00  .241906250000D+03 -.118611323449D+01 -.806997900416D-08
    -.378587198248D-10  .100000000000D+01  .164100000000D+04  .000000000000D+00
     .240000000000D+01  .000000000000D+00 -.931322574615D-08  .100000000000D+01
     .451386000000D+06  .400000000000D+01
16 11  6 24  5 59 44.0 -.181046780199D-03 -.250111042988D-11  .000000000000D+00
     .500000000000D+01 -.114687500000D+02  .420160358508D-08  .808971560958D+00
    -.512227416039D-06  .638389296364D-02  .640191137791D-05  .515382609367D+04
     .453584000000D+06  .137835741043D-06  .285287655573D+01  .931322574615D-07
     .976828008762D+00  .263687500000D+03 -.890466034113D-01 -.794354516626D-08
     .320727645308D-09  .100000000000D+01  .164100000000D+04  .000000000000D+00
     .240000000000D+01  .000000000000D+00 -.977888703346D-08  .500000000000D+01
     .452976000000D+06  .400000000000D+01
16 11  6 24  7 59 44.0 -.181064940989D-03 -.250111042988D-11  .000000000000D+00
     .600000000000D+01 -.665625000000D+01  .414160108574D-08  .185883621711D+01
    -.251457095146D-06  .638412812259D-02  .692531466484D-05  .515382879066D+04
     .460784000000D+06 -.111758708954D-07  .285282017779D+01  .838190317154D-07
     .976830033440D+00  .254812500000D+03 -.888270749985D-01 -.788318550918D-08
     .228580949885D-09  .100000000000D+01  .164100000000D+04  .000000000000D+00
     .240000000000D+01  .000000000000D+00 -.977888703346D-08  .600000000000D+01
     .453606000000D+06  .400000000000D+01
28 11  6 24  7 59 44.0  .470145605505D-04  .272848410532D-11  .000000000000D+00
     .230000000000D+02 -.131562500000D+02  .426410618857D-08  .154929122037D+01
    -.825151801109D-06  .170016123448D-01  .687688589096D-05  .515369759560D+04
     .460784000000D+06 -.273808836937D-06  .285999901816D+01 -.324100255966D-06
     .975126883732D+00  .255781250000D+03 -.188621145056D+01 -.803747765035D-08
     .350728894981D-09  .100000000000D+01  .164100000000D+04  .000000000000D+00
     .240000000000D+01  .000000000000D+00 -.102445483208D-07  .230000000000D+02
     .453606000000D+06  .400000000000D+01
29 11  6 24  7 59 44.0  .217728782445D-03  .306954461848D-11  .000000000000D+00
     .420000000000D+02 -.328750000000D+02  .464376486002D-08 -.259004740624D+01
    -.168383121490D-05  .255297997501D-02  .688992440701D-05  .515377298737D+04
     .460784000000D+06  .223517417908D-07 -.237996902436D+01  .391155481339D-07
     .961802830674D+00  .243187500000D+03 -.118610457402D+01 -.804640659370D-08
     .225009372544D-10  .100000000000D+01  .164100000000D+04  .000000000000D+00
     .240000000000D+01  .000000000000D+00 -.931322574615D-08  .420000000000D+02
     .453606000000D+06  .400000000000D+01
 1 11  6 24  8  0  0.0  .933837145567D-04  .227373675443D-11  .000000000000D+00
     .790000000000D+02 -.152500000000D+02  .446875757026D-08  .260747395118D+01
    -.763684511185D-06  .111885772785D-01  .702589750290D-05  .515377139854D+04
     .460800000000D+06  .143423676491D-06  .271685875856D+01 -.428408384323D-07
     .955817769487D+00  .239062500000D+03  .149775343275D+01 -.786389899153D-08
     .326442169055D-09  .100000000000D+01  .164100000000D+04  .000000000000D+00
     .485000000000D+01  .630000000000D+02 -.419095158577D-08  .790000000000D+02
     .453606000000D+06  .400000000000D+01
 2 11  6 24  8  0  0.0  .343294814229D-03  .193267624127D-11  .000000000000D+00
     .620000000000D+02  .209375000000D+02  .519164482427D-08 -.399698490784D+00
     .114925205708D-05  .103286370868D-01  .985525548458D-05  .515377372742D+04
     .460800000000D+06  .154599547386D-06 -.138787792461D+01  .186264514923D-07
     .938597342381D+00  .177343750000D+03 -.297356881577D+01 -.832713257278D-08
    -.546451333320D-10  .100000000000D+01  .164100000000D+04  .000000000000D+00
     .240000000000D+01  .000000000000D+00 -.172294676304D-07  .620000000000D+02
     .453606000000D+06  .400000000000D+01
